STARLINK-36840          
1 67850U 26034A   26072.77766991  .00338511  00000+0  16418-2 0  9992
2 67850  53.1581 190.8708 0001140  56.1208 303.9923 15.81011207  4584
STARLINK-36348          
1 67851U 26034B   26072.90335711  .00388569  00000+0  18705-2 0  9999
2 67851  53.1581 190.2319 0000960  97.3155 262.7977 15.81039496  4608
STARLINK-36276          
1 67852U 26034C   26072.90260906  .00239848  00000+0  11795-2 0  9990
2 67852  53.1584 190.2263 0001695  47.5944 312.5222 15.80978883  4607
STARLINK-36785          
1 67853U 26034D   26072.71220574  .00196733  00000+0  97462-3 0  9998
2 67853  53.1586 191.1720 0001668  54.4649 305.6529 15.80942196  4574
STARLINK-36608          
1 67854U 26034E   26072.71145514  .00285534  00000+0  13961-2 0  9998
2 67854  53.1582 191.1670 0001600  74.7918 285.3282 15.80977875  4566
STARLINK-36838          
1 67855U 26034F   26072.71070557  .00354112  00000+0  17152-2 0  9998
2 67855  53.1583 191.1612 0001753  76.4378 283.6840 15.80997574  4572
STARLINK-36843          
1 67856U 26034G   26072.83563366  .00370093  00000+0  17861-2 0  9990
2 67856  53.1581 190.5176 0000849 131.7677 228.3419 15.81034277  4594
STARLINK-36828          
1 67857U 26034H   26072.83638575  .00252099  00000+0  12377-2 0  9998
2 67857  53.1582 190.5225 0000948  81.2166 278.8964 15.80981177  4597
STARLINK-36837          
1 67858U 26034J   26072.89810227  .00404016  00000+0  19399-2 0  9990
2 67858  53.1582 190.1954 0001059 144.3724 215.7370 15.81054488  4608
STARLINK-36393          
1 67859U 26034K   26072.83413636  .00358403  00000+0  17321-2 0  9999
2 67859  53.1583 190.5067 0001125 103.7672 256.3477 15.81035171  4599
STARLINK-35873          
1 67860U 26034L   26072.89661299  .00289939  00000+0  14163-2 0  9995
2 67860  53.1580 190.1849 0002547  46.7609 313.3626 15.80986489  4638
STARLINK-36325          
1 67861U 26034M   26072.89585912  .00312845  00000+0  15229-2 0  9990
2 67861  53.1580 190.1796 0001822  67.1619 292.9596 15.81000787  4607
STARLINK-36332          
1 67862U 26034N   26072.83188492  .00381570  00000+0  18388-2 0  9997
2 67862  53.1580 190.4920 0000424 127.4406 232.6655 15.81034223  4598
STARLINK-36835          
1 67863U 26034P   26072.83113669  .00189650  00000+0  93905-3 0  9996
2 67863  53.1583 190.4851 0001248  96.8100 263.3065 15.80974350  4599
STARLINK-36831          
1 67864U 26034Q   26072.83038457  .00352818  00000+0  17067-2 0  9990
2 67864  53.1582 190.4815 0000843 109.9460 250.1654 15.81028962  4592
STARLINK-36738          
1 67865U 26034R   26072.82963531  .00330491  00000+0  16030-2 0  9992
2 67865  53.1580 190.4760 0001242 119.9571 240.1576 15.81030823  4599
