[{"OBJECT_NAME":"STARLINK-36840","OBJECT_ID":"2026-034A","EPOCH":"2026-03-13T18:39:50.680224","MEAN_MOTION":15.81011207,"ECCENTRICITY":0.00011401,"INCLINATION":53.1581,"RA_OF_ASC_NODE":190.8708,"ARG_OF_PERICENTER":56.1208,"MEAN_ANOMALY":303.9923,"EPHEMERIS_TYPE":0,"CLASSIFICATION_TYPE":"U","NORAD_CAT_ID":67850,"ELEMENT_SET_NO":999,"REV_AT_EPOCH":458,"BSTAR":0.0016417646,"MEAN_MOTION_DOT":0.00338511,"MEAN_MOTION_DDOT":0},{"OBJECT_NAME":"STARLINK-36348","OBJECT_ID":"2026-034B","EPOCH":"2026-03-13T21:40:50.054304","MEAN_MOTION":15.81039496,"ECCENTRICITY":9.609e-5,"INCLINATION":53.1581,"RA_OF_ASC_NODE":190.2319,"ARG_OF_PERICENTER":97.3155,"MEAN_ANOMALY":262.7977,"EPHEMERIS_TYPE":0,"CLASSIFICATION_TYPE":"U","NORAD_CAT_ID":67851,"ELEMENT_SET_NO":999,"REV_AT_EPOCH":460,"BSTAR":0.0018705457,"MEAN_MOTION_DOT":0.00388569,"MEAN_MOTION_DDOT":0},{"OBJECT_NAME":"STARLINK-36276","OBJECT_ID":"2026-034C","EPOCH":"2026-03-13T21:39:45.422784","MEAN_MOTION":15.80978883,"ECCENTRICITY":0.00016955,"INCLINATION":53.1584,"RA_OF_ASC_NODE":190.2263,"ARG_OF_PERICENTER":47.5944,"MEAN_ANOMALY":312.5222,"EPHEMERIS_TYPE":0,"CLASSIFICATION_TYPE":"U","NORAD_CAT_ID":67852,"ELEMENT_SET_NO":999,"REV_AT_EPOCH":460,"BSTAR":0.0011795108,"MEAN_MOTION_DOT":0.00239848,"MEAN_MOTION_DDOT":0},{"OBJECT_NAME":"STARLINK-36785","OBJECT_ID":"2026-034D","EPOCH":"2026-03-13T17:05:34.575936","MEAN_MOTION":15.80942196,"ECCENTRICITY":0.00016682,"INCLINATION":53.1586,"RA_OF_ASC_NODE":191.172,"ARG_OF_PERICENTER":54.4649,"MEAN_ANOMALY":305.6529,"EPHEMERIS_TYPE":0,"CLASSIFICATION_TYPE":"U","NORAD_CAT_ID":67853,"ELEMENT_SET_NO":999,"REV_AT_EPOCH":457,"BSTAR":0.00097462052,"MEAN_MOTION_DOT":0.00196733,"MEAN_MOTION_DDOT":0},{"OBJECT_NAME":"STARLINK-36608","OBJECT_ID":"2026-034E","EPOCH":"2026-03-13T17:04:29.724096","MEAN_MOTION":15.80977875,"ECCENTRICITY":0.00016006,"INCLINATION":53.1582,"RA_OF_ASC_NODE":191.167,"ARG_OF_PERICENTER":74.7918,"MEAN_ANOMALY":285.3282,"EPHEMERIS_TYPE":0,"CLASSIFICATION_TYPE":"U","NORAD_CAT_ID":67854,"ELEMENT_SET_NO":999,"REV_AT_EPOCH":456,"BSTAR":0.0013961295,"MEAN_MOTION_DOT":0.00285534,"MEAN_MOTION_DDOT":0},{"OBJECT_NAME":"STARLINK-36838","OBJECT_ID":"2026-034F","EPOCH":"2026-03-13T17:03:24.961248","MEAN_MOTION":15.80997574,"ECCENTRICITY":0.00017536,"INCLINATION":53.1583,"RA_OF_ASC_NODE":191.1612,"ARG_OF_PERICENTER":76.4378,"MEAN_ANOMALY":283.684,"EPHEMERIS_TYPE":0,"CLASSIFICATION_TYPE":"U","NORAD_CAT_ID":67855,"ELEMENT_SET_NO":999,"REV_AT_EPOCH":457,"BSTAR":0.0017152422,"MEAN_MOTION_DOT":0.00354112,"MEAN_MOTION_DDOT":0},{"OBJECT_NAME":"STARLINK-36843","OBJECT_ID":"2026-034G","EPOCH":"2026-03-13T20:03:18.748224","MEAN_MOTION":15.81034277,"ECCENTRICITY":8.49e-5,"INCLINATION":53.1581,"RA_OF_ASC_NODE":190.5176,"ARG_OF_PERICENTER":131.7677,"MEAN_ANOMALY":228.3419,"EPHEMERIS_TYPE":0,"CLASSIFICATION_TYPE":"U","NORAD_CAT_ID":67856,"ELEMENT_SET_NO":999,"REV_AT_EPOCH":459,"BSTAR":0.0017860501,"MEAN_MOTION_DOT":0.00370093,"MEAN_MOTION_DDOT":0},{"OBJECT_NAME":"STARLINK-36828","OBJECT_ID":"2026-034H","EPOCH":"2026-03-13T20:04:23.728800","MEAN_MOTION":15.80981177,"ECCENTRICITY":9.483e-5,"INCLINATION":53.1582,"RA_OF_ASC_NODE":190.5225,"ARG_OF_PERICENTER":81.2166,"MEAN_ANOMALY":278.8964,"EPHEMERIS_TYPE":0,"CLASSIFICATION_TYPE":"U","NORAD_CAT_ID":67857,"ELEMENT_SET_NO":999,"REV_AT_EPOCH":459,"BSTAR":0.0012376794,"MEAN_MOTION_DOT":0.00252099,"MEAN_MOTION_DDOT":0},{"OBJECT_NAME":"STARLINK-36837","OBJECT_ID":"2026-034J","EPOCH":"2026-03-13T21:33:16.036128","MEAN_MOTION":15.81054488,"ECCENTRICITY":0.00010592,"INCLINATION":53.1582,"RA_OF_ASC_NODE":190.1954,"ARG_OF_PERICENTER":144.3724,"MEAN_ANOMALY":215.737,"EPHEMERIS_TYPE":0,"CLASSIFICATION_TYPE":"U","NORAD_CAT_ID":67858,"ELEMENT_SET_NO":999,"REV_AT_EPOCH":460,"BSTAR":0.0019399223,"MEAN_MOTION_DOT":0.00404016,"MEAN_MOTION_DDOT":0},{"OBJECT_NAME":"STARLINK-36393","OBJECT_ID":"2026-034K","EPOCH":"2026-03-13T20:01:09.381504","MEAN_MOTION":15.81035171,"ECCENTRICITY":0.00011251,"INCLINATION":53.1583,"RA_OF_ASC_NODE":190.5067,"ARG_OF_PERICENTER":103.7672,"MEAN_ANOMALY":256.3477,"EPHEMERIS_TYPE":0,"CLASSIFICATION_TYPE":"U","NORAD_CAT_ID":67859,"ELEMENT_SET_NO":999,"REV_AT_EPOCH":459,"BSTAR":0.00173208,"MEAN_MOTION_DOT":0.00358403,"MEAN_MOTION_DDOT":0},{"OBJECT_NAME":"STARLINK-35873","OBJECT_ID":"2026-034L","EPOCH":"2026-03-13T21:31:07.362336","MEAN_MOTION":15.80986489,"ECCENTRICITY":0.00025471,"INCLINATION":53.158,"RA_OF_ASC_NODE":190.1849,"ARG_OF_PERICENTER":46.7609,"MEAN_ANOMALY":313.3626,"EPHEMERIS_TYPE":0,"CLASSIFICATION_TYPE":"U","NORAD_CAT_ID":67860,"ELEMENT_SET_NO":999,"REV_AT_EPOCH":463,"BSTAR":0.001416275,"MEAN_MOTION_DOT":0.00289939,"MEAN_MOTION_DDOT":0},{"OBJECT_NAME":"STARLINK-36325","OBJECT_ID":"2026-034M","EPOCH":"2026-03-13T21:30:02.227968","MEAN_MOTION":15.81000787,"ECCENTRICITY":0.00018222,"INCLINATION":53.158,"RA_OF_ASC_NODE":190.1796,"ARG_OF_PERICENTER":67.1619,"MEAN_ANOMALY":292.9596,"EPHEMERIS_TYPE":0,"CLASSIFICATION_TYPE":"U","NORAD_CAT_ID":67861,"ELEMENT_SET_NO":999,"REV_AT_EPOCH":460,"BSTAR":0.0015228586,"MEAN_MOTION_DOT":0.00312845,"MEAN_MOTION_DDOT":0},{"OBJECT_NAME":"STARLINK-36332","OBJECT_ID":"2026-034N","EPOCH":"2026-03-13T19:57:54.857088","MEAN_MOTION":15.81034223,"ECCENTRICITY":4.24e-5,"INCLINATION":53.158,"RA_OF_ASC_NODE":190.492,"ARG_OF_PERICENTER":127.4406,"MEAN_ANOMALY":232.6655,"EPHEMERIS_TYPE":0,"CLASSIFICATION_TYPE":"U","NORAD_CAT_ID":67862,"ELEMENT_SET_NO":999,"REV_AT_EPOCH":459,"BSTAR":0.0018387758,"MEAN_MOTION_DOT":0.0038157,"MEAN_MOTION_DDOT":0},{"OBJECT_NAME":"STARLINK-36835","OBJECT_ID":"2026-034P","EPOCH":"2026-03-13T19:56:50.210016","MEAN_MOTION":15.8097435,"ECCENTRICITY":0.00012485,"INCLINATION":53.1583,"RA_OF_ASC_NODE":190.4851,"ARG_OF_PERICENTER":96.81,"MEAN_ANOMALY":263.3065,"EPHEMERIS_TYPE":0,"CLASSIFICATION_TYPE":"U","NORAD_CAT_ID":67863,"ELEMENT_SET_NO":999,"REV_AT_EPOCH":459,"BSTAR":0.00093905221,"MEAN_MOTION_DOT":0.0018965,"MEAN_MOTION_DDOT":0},{"OBJECT_NAME":"STARLINK-36831","OBJECT_ID":"2026-034Q","EPOCH":"2026-03-13T19:55:45.226848","MEAN_MOTION":15.81028962,"ECCENTRICITY":8.434e-5,"INCLINATION":53.1582,"RA_OF_ASC_NODE":190.4815,"ARG_OF_PERICENTER":109.946,"MEAN_ANOMALY":250.1654,"EPHEMERIS_TYPE":0,"CLASSIFICATION_TYPE":"U","NORAD_CAT_ID":67864,"ELEMENT_SET_NO":999,"REV_AT_EPOCH":459,"BSTAR":0.0017067115,"MEAN_MOTION_DOT":0.00352818,"MEAN_MOTION_DDOT":0},{"OBJECT_NAME":"STARLINK-36738","OBJECT_ID":"2026-034R","EPOCH":"2026-03-13T19:54:40.490784","MEAN_MOTION":15.81030823,"ECCENTRICITY":0.00012429,"INCLINATION":53.158,"RA_OF_ASC_NODE":190.476,"ARG_OF_PERICENTER":119.9571,"MEAN_ANOMALY":240.1576,"EPHEMERIS_TYPE":0,"CLASSIFICATION_TYPE":"U","NORAD_CAT_ID":67865,"ELEMENT_SET_NO":999,"REV_AT_EPOCH":459,"BSTAR":0.0016030174,"MEAN_MOTION_DOT":0.00330491,"MEAN_MOTION_DDOT":0}]
